[{"OBJECT_NAME":"STARLINK-4453","OBJECT_ID":"2022-099AJ","EPOCH":"2026-03-26T08:10:43.413600","MEAN_MOTION":15.01260061,"ECCENTRICITY":0.00023,"INCLINATION":97.6029,"RA_OF_ASC_NODE":206.5259,"ARG_OF_PERICENTER":90.3354,"MEAN_ANOMALY":269.8134,"EPHEMERIS_TYPE":0,"CLASSIFICATION_TYPE":"U","NORAD_CAT_ID":53497,"ELEMENT_SET_NO":999,"REV_AT_EPOCH":19848,"BSTAR":6.7838e-5,"MEAN_MOTION_DOT":8.13e-6,"MEAN_MOTION_DDOT":0},{"OBJECT_NAME":"STARLINK-4439","OBJECT_ID":"2022-099AK","EPOCH":"2026-03-26T08:20:43.308672","MEAN_MOTION":15.05651498,"ECCENTRICITY":5.77e-5,"INCLINATION":97.6038,"RA_OF_ASC_NODE":207.5914,"ARG_OF_PERICENTER":91.2443,"MEAN_ANOMALY":268.885,"EPHEMERIS_TYPE":0,"CLASSIFICATION_TYPE":"U","NORAD_CAT_ID":53498,"ELEMENT_SET_NO":999,"REV_AT_EPOCH":19855,"BSTAR":7.1898e-5,"MEAN_MOTION_DOT":9.77e-6,"MEAN_MOTION_DDOT":0},{"OBJECT_NAME":"STARLINK-4454","OBJECT_ID":"2022-099AL","EPOCH":"2026-03-26T12:00:01.999296","MEAN_MOTION":15.06481837,"ECCENTRICITY":3.38e-5,"INCLINATION":97.6024,"RA_OF_ASC_NODE":207.8489,"ARG_OF_PERICENTER":110.8954,"MEAN_ANOMALY":289.8314,"EPHEMERIS_TYPE":0,"CLASSIFICATION_TYPE":"U","NORAD_CAT_ID":53499,"ELEMENT_SET_NO":999,"REV_AT_EPOCH":577,"BSTAR":-0.0032452,"MEAN_MOTION_DOT":-0.00047625,"MEAN_MOTION_DDOT":0},{"OBJECT_NAME":"STARLINK-4455","OBJECT_ID":"2022-099AM","EPOCH":"2026-03-26T06:49:01.461216","MEAN_MOTION":15.05650082,"ECCENTRICITY":3.91e-5,"INCLINATION":97.6044,"RA_OF_ASC_NODE":207.6653,"ARG_OF_PERICENTER":149.7923,"MEAN_ANOMALY":210.3327,"EPHEMERIS_TYPE":0,"CLASSIFICATION_TYPE":"U","NORAD_CAT_ID":53500,"ELEMENT_SET_NO":999,"REV_AT_EPOCH":19855,"BSTAR":0.00016101,"MEAN_MOTION_DOT":2.263e-5,"MEAN_MOTION_DDOT":0},{"OBJECT_NAME":"STARLINK-4434","OBJECT_ID":"2022-099AN","EPOCH":"2026-03-26T12:00:01.999296","MEAN_MOTION":15.11062624,"ECCENTRICITY":0.000156,"INCLINATION":97.6031,"RA_OF_ASC_NODE":206.8037,"ARG_OF_PERICENTER":89.9604,"MEAN_ANOMALY":21.9546,"EPHEMERIS_TYPE":0,"CLASSIFICATION_TYPE":"U","NORAD_CAT_ID":53501,"ELEMENT_SET_NO":999,"REV_AT_EPOCH":580,"BSTAR":-0.0028737,"MEAN_MOTION_DOT":-0.00047787,"MEAN_MOTION_DDOT":0},{"OBJECT_NAME":"STARLINK-4435","OBJECT_ID":"2022-099AP","EPOCH":"2026-03-26T12:00:01.999296","MEAN_MOTION":15.11058912,"ECCENTRICITY":0.0001867,"INCLINATION":97.6032,"RA_OF_ASC_NODE":207.8836,"ARG_OF_PERICENTER":67.2043,"MEAN_ANOMALY":51.5633,"EPHEMERIS_TYPE":0,"CLASSIFICATION_TYPE":"U","NORAD_CAT_ID":53502,"ELEMENT_SET_NO":999,"REV_AT_EPOCH":581,"BSTAR":-0.00259,"MEAN_MOTION_DOT":-0.000431,"MEAN_MOTION_DDOT":0},{"OBJECT_NAME":"STARLINK-4461","OBJECT_ID":"2022-099AQ","EPOCH":"2026-03-26T16:19:53.472864","MEAN_MOTION":16.10475764,"ECCENTRICITY":0.0001957,"INCLINATION":97.6357,"RA_OF_ASC_NODE":235.4288,"ARG_OF_PERICENTER":303.8613,"MEAN_ANOMALY":56.2484,"EPHEMERIS_TYPE":0,"CLASSIFICATION_TYPE":"U","NORAD_CAT_ID":53503,"ELEMENT_SET_NO":999,"REV_AT_EPOCH":20027,"BSTAR":0.00073052,"MEAN_MOTION_DOT":0.00696262,"MEAN_MOTION_DDOT":0.00026592},{"OBJECT_NAME":"STARLINK-4448","OBJECT_ID":"2022-099AR","EPOCH":"2026-03-26T12:00:01.999296","MEAN_MOTION":15.1023821,"ECCENTRICITY":0.0001486,"INCLINATION":97.6027,"RA_OF_ASC_NODE":206.7867,"ARG_OF_PERICENTER":82.1106,"MEAN_ANOMALY":339.7613,"EPHEMERIS_TYPE":0,"CLASSIFICATION_TYPE":"U","NORAD_CAT_ID":53504,"ELEMENT_SET_NO":999,"REV_AT_EPOCH":580,"BSTAR":-0.002259,"MEAN_MOTION_DOT":-0.00036792,"MEAN_MOTION_DDOT":0},{"OBJECT_NAME":"STARLINK-4446","OBJECT_ID":"2022-099AS","EPOCH":"2026-03-26T12:00:01.999296","MEAN_MOTION":15.53501982,"ECCENTRICITY":0.0001112,"INCLINATION":97.6027,"RA_OF_ASC_NODE":209.3272,"ARG_OF_PERICENTER":83.9978,"MEAN_ANOMALY":187.3517,"EPHEMERIS_TYPE":0,"CLASSIFICATION_TYPE":"U","NORAD_CAT_ID":53505,"ELEMENT_SET_NO":999,"REV_AT_EPOCH":583,"BSTAR":0.0083555,"MEAN_MOTION_DOT":0.00569335,"MEAN_MOTION_DDOT":0},{"OBJECT_NAME":"STARLINK-4437","OBJECT_ID":"2022-099AT","EPOCH":"2026-03-26T12:00:01.999296","MEAN_MOTION":15.11083064,"ECCENTRICITY":4.4e-5,"INCLINATION":97.6025,"RA_OF_ASC_NODE":207.8046,"ARG_OF_PERICENTER":55.6541,"MEAN_ANOMALY":280.4677,"EPHEMERIS_TYPE":0,"CLASSIFICATION_TYPE":"U","NORAD_CAT_ID":53506,"ELEMENT_SET_NO":999,"REV_AT_EPOCH":566,"BSTAR":-0.0032791,"MEAN_MOTION_DOT":-0.00054497,"MEAN_MOTION_DDOT":0},{"OBJECT_NAME":"STARLINK-4443","OBJECT_ID":"2022-099AV","EPOCH":"2026-03-26T07:12:56.649024","MEAN_MOTION":15.05646521,"ECCENTRICITY":8.29e-5,"INCLINATION":97.6021,"RA_OF_ASC_NODE":207.6175,"ARG_OF_PERICENTER":201.184,"MEAN_ANOMALY":158.9353,"EPHEMERIS_TYPE":0,"CLASSIFICATION_TYPE":"U","NORAD_CAT_ID":53508,"ELEMENT_SET_NO":999,"REV_AT_EPOCH":19855,"BSTAR":3.1508e-5,"MEAN_MOTION_DOT":3.94e-6,"MEAN_MOTION_DDOT":0},{"OBJECT_NAME":"STARLINK-4402","OBJECT_ID":"2022-099AW","EPOCH":"2026-03-26T12:00:01.999296","MEAN_MOTION":15.07821371,"ECCENTRICITY":0.00022,"INCLINATION":97.6026,"RA_OF_ASC_NODE":206.7371,"ARG_OF_PERICENTER":62.046,"MEAN_ANOMALY":321.8014,"EPHEMERIS_TYPE":0,"CLASSIFICATION_TYPE":"U","NORAD_CAT_ID":53509,"ELEMENT_SET_NO":999,"REV_AT_EPOCH":579,"BSTAR":-0.0013684,"MEAN_MOTION_DOT":-0.00020937,"MEAN_MOTION_DDOT":0},{"OBJECT_NAME":"STARLINK-4503","OBJECT_ID":"2022-101B","EPOCH":"2026-03-26T11:19:44.947200","MEAN_MOTION":15.08841757,"ECCENTRICITY":0.0001611,"INCLINATION":53.2201,"RA_OF_ASC_NODE":358.7841,"ARG_OF_PERICENTER":83.7582,"MEAN_ANOMALY":276.3593,"EPHEMERIS_TYPE":0,"CLASSIFICATION_TYPE":"U","NORAD_CAT_ID":53528,"ELEMENT_SET_NO":999,"REV_AT_EPOCH":19869,"BSTAR":0.00010151,"MEAN_MOTION_DOT":1.328e-5,"MEAN_MOTION_DDOT":0},{"OBJECT_NAME":"STARLINK-4478","OBJECT_ID":"2022-101C","EPOCH":"2026-03-26T02:05:19.194144","MEAN_MOTION":15.11332862,"ECCENTRICITY":0.00039139,"INCLINATION":53.2166,"RA_OF_ASC_NODE":0.0384,"ARG_OF_PERICENTER":103.0797,"MEAN_ANOMALY":257.0633,"EPHEMERIS_TYPE":0,"CLASSIFICATION_TYPE":"U","NORAD_CAT_ID":53529,"ELEMENT_SET_NO":999,"REV_AT_EPOCH":19864,"BSTAR":0.0011181408,"MEAN_MOTION_DOT":0.00018818,"MEAN_MOTION_DDOT":0},{"OBJECT_NAME":"STARLINK-4482","OBJECT_ID":"2022-101D","EPOCH":"2026-03-26T11:30:23.745600","MEAN_MOTION":15.08837471,"ECCENTRICITY":0.0001549,"INCLINATION":53.2184,"RA_OF_ASC_NODE":358.9697,"ARG_OF_PERICENTER":90.079,"MEAN_ANOMALY":270.0379,"EPHEMERIS_TYPE":0,"CLASSIFICATION_TYPE":"U","NORAD_CAT_ID":53530,"ELEMENT_SET_NO":999,"REV_AT_EPOCH":19869,"BSTAR":4.9432e-5,"MEAN_MOTION_DOT":4.99e-6,"MEAN_MOTION_DDOT":0},{"OBJECT_NAME":"STARLINK-4487","OBJECT_ID":"2022-101E","EPOCH":"2026-03-26T11:03:51.344352","MEAN_MOTION":15.08835346,"ECCENTRICITY":0.0001428,"INCLINATION":53.2188,"RA_OF_ASC_NODE":358.833,"ARG_OF_PERICENTER":99.8513,"MEAN_ANOMALY":260.264,"EPHEMERIS_TYPE":0,"CLASSIFICATION_TYPE":"U","NORAD_CAT_ID":53531,"ELEMENT_SET_NO":999,"REV_AT_EPOCH":19869,"BSTAR":7.7386e-5,"MEAN_MOTION_DOT":9.44e-6,"MEAN_MOTION_DDOT":0},{"OBJECT_NAME":"STARLINK-4483","OBJECT_ID":"2022-101F","EPOCH":"2026-03-26T03:54:37.025856","MEAN_MOTION":15.08839186,"ECCENTRICITY":0.00015548,"INCLINATION":53.2189,"RA_OF_ASC_NODE":0.1669,"ARG_OF_PERICENTER":81.1969,"MEAN_ANOMALY":278.9199,"EPHEMERIS_TYPE":0,"CLASSIFICATION_TYPE":"U","NORAD_CAT_ID":53532,"ELEMENT_SET_NO":999,"REV_AT_EPOCH":19865,"BSTAR":4.4838973e-5,"MEAN_MOTION_DOT":4.26e-6,"MEAN_MOTION_DDOT":0}]
