STARLINK-4453           
1 53497U 22099AJ  26085.34078025  .00000813  00000+0  67838-4 0  9997
2 53497  97.6029 206.5259 0002300  90.3354 269.8134 15.01260061198486
STARLINK-4439           
1 53498U 22099AK  26085.34772348  .00000977  00000+0  71898-4 0  9999
2 53498  97.6038 207.5914 0000577  91.2443 268.8850 15.05651498198553
STARLINK-4454           
1 53499U 22099AL  26085.50002314 -.00047625  00000+0 -32452-2 0  9991
2 53499  97.6024 207.8489 0000338 110.8954 289.8314 15.06481837  5777
STARLINK-4455           
1 53500U 22099AM  26085.28404469  .00002263  00000+0  16101-3 0  9997
2 53500  97.6044 207.6653 0000391 149.7923 210.3327 15.05650082198550
STARLINK-4434           
1 53501U 22099AN  26085.50002314 -.00047787  00000+0 -28737-2 0  9995
2 53501  97.6031 206.8037 0001560  89.9604  21.9546 15.11062624  5804
STARLINK-4435           
1 53502U 22099AP  26085.50002314 -.00043100  00000+0 -25900-2 0  9990
2 53502  97.6032 207.8836 0001867  67.2043  51.5633 15.11058912  5812
STARLINK-4461           
1 53503U 22099AQ  26085.68048001  .00696262  26592-3  73052-3 0  9994
2 53503  97.6357 235.4288 0001957 303.8613  56.2484 16.10475764200274
STARLINK-4448           
1 53504U 22099AR  26085.50002314 -.00036792  00000+0 -22590-2 0  9993
2 53504  97.6027 206.7867 0001486  82.1106 339.7613 15.10238210  5801
STARLINK-4446           
1 53505U 22099AS  26085.50002314  .00569335  00000+0  83555-2 0  9994
2 53505  97.6027 209.3272 0001112  83.9978 187.3517 15.53501982  5832
STARLINK-4437           
1 53506U 22099AT  26085.50002314 -.00054497  00000+0 -32791-2 0  9991
2 53506  97.6025 207.8046 0000440  55.6541 280.4677 15.11083064  5661
STARLINK-4443           
1 53508U 22099AV  26085.30065566  .00000394  00000+0  31508-4 0  9991
2 53508  97.6021 207.6175 0000829 201.1840 158.9353 15.05646521198558
STARLINK-4402           
1 53509U 22099AW  26085.50002314 -.00020937  00000+0 -13684-2 0  9996
2 53509  97.6026 206.7371 0002200  62.0460 321.8014 15.07821371  5797
STARLINK-4503           
1 53528U 22101B   26085.47204800  .00001328  00000+0  10151-3 0  9999
2 53528  53.2201 358.7841 0001611  83.7582 276.3593 15.08841757198690
STARLINK-4478           
1 53529U 22101C   26085.08702771  .00018818  00000+0  11181-2 0  9992
2 53529  53.2166   0.0384 0003913 103.0797 257.0633 15.11332862198643
STARLINK-4482           
1 53530U 22101D   26085.47944150  .00000499  00000+0  49432-4 0  9994
2 53530  53.2184 358.9697 0001549  90.0790 270.0379 15.08837471198697
STARLINK-4487           
1 53531U 22101E   26085.46101093  .00000944  00000+0  77386-4 0  9999
2 53531  53.2188 358.8330 0001428  99.8513 260.2640 15.08835346198692
STARLINK-4483           
1 53532U 22101F   26085.16292854  .00000426  00000+0  44839-4 0  9995
2 53532  53.2189   0.1669 0001554  81.1969 278.9199 15.08839186198652
